{
  "type": "FeatureCollection",
  "features": [
    {
      "type": "Feature",
      "properties": {
        "norad_id": 37533,
        "name": "COSMOS 2251 DEB",
        "group": "cosmos-2251-debris",
        "lat": 57.327981926257344,
        "lon": -30.04798973012373,
        "alt_km": 887.5099744515655,
        "timestamp": "2025-12-21T11:31:43.257432+00:00",
        "meta_object_name": "COSMOS 2251 DEB",
        "meta_object_id": "1993-036BNN",
        "meta_epoch": "2025-12-17T06:38:38.162976",
        "meta_mean_motion": 14.12190824,
        "meta_eccentricity": 0.0157786,
        "meta_inclination": 74.0692,
        "meta_ra_of_asc_node": 183.8069,
        "meta_arg_of_pericenter": 239.4795,
        "meta_mean_anomaly": 119.0691,
        "meta_ephemeris_type": 0,
        "meta_classification_type": "U",
        "meta_norad_cat_id": 37533,
        "meta_element_set_no": 999,
        "meta_rev_at_epoch": 62985,
        "meta_bstar": 0.0010470743,
        "meta_mean_motion_dot": 2.138e-05,
        "meta_mean_motion_ddot": 0,
        "tle_line1": "1 37533U 93036BNN 25351.27683059  .00002138  00000+0  10471-2 0  9996",
        "tle_line2": "2 37533  74.0692 183.8069 0157786 239.4795 119.0691 14.12190824629858"
      },
      "geometry": {
        "type": "Point",
        "coordinates": [
          -30.04798973012373,
          57.327981926257344
        ]
      }
    },
    {
      "type": "Feature",
      "properties": {
        "norad_id": 37535,
        "name": "COSMOS 2251 DEB",
        "group": "cosmos-2251-debris",
        "lat": 54.28700510446496,
        "lon": 80.3347274447319,
        "alt_km": 706.6563095909405,
        "timestamp": "2025-12-21T11:31:43.257445+00:00",
        "meta_object_name": "COSMOS 2251 DEB",
        "meta_object_id": "1993-036BNQ",
        "meta_epoch": "2025-12-19T15:30:43.235136",
        "meta_mean_motion": 14.58499467,
        "meta_eccentricity": 0.0027409,
        "meta_inclination": 74.024,
        "meta_ra_of_asc_node": 60.3433,
        "meta_arg_of_pericenter": 198.557,
        "meta_mean_anomaly": 313.5255,
        "meta_ephemeris_type": 0,
        "meta_classification_type": "U",
        "meta_norad_cat_id": 37535,
        "meta_element_set_no": 999,
        "meta_rev_at_epoch": 85425,
        "meta_bstar": 0.0004624,
        "meta_mean_motion_dot": 2.129e-05,
        "meta_mean_motion_ddot": 0,
        "tle_line1": "1 37535U 93036BNQ 25353.64633374  .00002129  00000+0  46240-3 0  9990",
        "tle_line2": "2 37535  74.0240  60.3433 0027409 198.5570 313.5255 14.58499467854253"
      },
      "geometry": {
        "type": "Point",
        "coordinates": [
          80.3347274447319,
          54.28700510446496
        ]
      }
    },
    {
      "type": "Feature",
      "properties": {
        "norad_id": 37537,
        "name": "COSMOS 2251 DEB",
        "group": "cosmos-2251-debris",
        "lat": -48.9279655160646,
        "lon": -130.18899014483753,
        "alt_km": 765.8922113300459,
        "timestamp": "2025-12-21T11:31:43.257457+00:00",
        "meta_object_name": "COSMOS 2251 DEB",
        "meta_object_id": "1993-036BNS",
        "meta_epoch": "2025-12-20T10:42:49.127616",
        "meta_mean_motion": 14.37501224,
        "meta_eccentricity": 0.00506405,
        "meta_inclination": 74.0118,
        "meta_ra_of_asc_node": 250.923,
        "meta_arg_of_pericenter": 29.0994,
        "meta_mean_anomaly": 331.2965,
        "meta_ephemeris_type": 0,
        "meta_classification_type": "U",
        "meta_norad_cat_id": 37537,
        "meta_element_set_no": 999,
        "meta_rev_at_epoch": 85144,
        "meta_bstar": 0.00015589404,
        "meta_mean_motion_dot": 4.47e-06,
        "meta_mean_motion_ddot": 0,
        "tle_line1": "1 37537U 93036BNS 25354.44640194  .00000447  00000+0  15589-3 0  9992",
        "tle_line2": "2 37537  74.0118 250.9230 0050640  29.0994 331.2965 14.37501224851447"
      },
      "geometry": {
        "type": "Point",
        "coordinates": [
          -130.18899014483753,
          -48.9279655160646
        ]
      }
    },
    {
      "type": "Feature",
      "properties": {
        "norad_id": 37546,
        "name": "COSMOS 2251 DEB",
        "group": "cosmos-2251-debris",
        "lat": -51.871112529784064,
        "lon": 59.348166665332116,
        "alt_km": 636.0136514353208,
        "timestamp": "2025-12-21T11:31:43.257468+00:00",
        "meta_object_name": "COSMOS 2251 DEB",
        "meta_object_id": "1993-036BPB",
        "meta_epoch": "2025-12-19T06:16:07.383648",
        "meta_mean_motion": 14.80755456,
        "meta_eccentricity": 0.0005308,
        "meta_inclination": 74.0228,
        "meta_ra_of_asc_node": 85.1349,
        "meta_arg_of_pericenter": 85.4439,
        "meta_mean_anomaly": 274.7344,
        "meta_ephemeris_type": 0,
        "meta_classification_type": "U",
        "meta_norad_cat_id": 37546,
        "meta_element_set_no": 999,
        "meta_rev_at_epoch": 65984,
        "meta_bstar": 0.001677,
        "meta_mean_motion_dot": 0.00012912,
        "meta_mean_motion_ddot": 0,
        "tle_line1": "1 37546U 93036BPB 25353.26119657  .00012912  00000+0  16770-2 0  9998",
        "tle_line2": "2 37546  74.0228  85.1349 0005308  85.4439 274.7344 14.80755456659847"
      },
      "geometry": {
        "type": "Point",
        "coordinates": [
          59.348166665332116,
          -51.871112529784064
        ]
      }
    },
    {
      "type": "Feature",
      "properties": {
        "norad_id": 37959,
        "name": "COSMOS 2251 DEB",
        "group": "cosmos-2251-debris",
        "lat": 27.575888455128684,
        "lon": -148.32490365057623,
        "alt_km": 662.3489871090715,
        "timestamp": "2025-12-21T11:31:43.257479+00:00",
        "meta_object_name": "COSMOS 2251 DEB",
        "meta_object_id": "1993-036BPJ",
        "meta_epoch": "2025-12-20T20:49:55.034112",
        "meta_mean_motion": 14.58188952,
        "meta_eccentricity": 0.00573523,
        "meta_inclination": 74.0098,
        "meta_ra_of_asc_node": 41.4544,
        "meta_arg_of_pericenter": 182.5287,
        "meta_mean_anomaly": 355.6373,
        "meta_ephemeris_type": 0,
        "meta_classification_type": "U",
        "meta_norad_cat_id": 37959,
        "meta_element_set_no": 999,
        "meta_rev_at_epoch": 80245,
        "meta_bstar": 0.00037302555,
        "meta_mean_motion_dot": 1.73e-05,
        "meta_mean_motion_ddot": 0,
        "tle_line1": "1 37959U 93036BPJ 25354.86799808  .00001730  00000+0  37303-3 0  9997",
        "tle_line2": "2 37959  74.0098  41.4544 0057352 182.5287 355.6373 14.58188952802452"
      },
      "geometry": {
        "type": "Point",
        "coordinates": [
          -148.32490365057623,
          27.575888455128684
        ]
      }
    },
    {
      "type": "Feature",
      "properties": {
        "norad_id": 37960,
        "name": "COSMOS 2251 DEB",
        "group": "cosmos-2251-debris",
        "lat": -48.42585924390828,
        "lon": 10.372840417666591,
        "alt_km": 739.1520399370502,
        "timestamp": "2025-12-21T11:31:43.257489+00:00",
        "meta_object_name": "COSMOS 2251 DEB",
        "meta_object_id": "1993-036BPK",
        "meta_epoch": "2025-12-16T19:35:27.740256",
        "meta_mean_motion": 14.07867991,
        "meta_eccentricity": 0.02485393,
        "meta_inclination": 74.059,
        "meta_ra_of_asc_node": 179.7478,
        "meta_arg_of_pericenter": 197.3915,
        "meta_mean_anomaly": 161.86,
        "meta_ephemeris_type": 0,
        "meta_classification_type": "U",
        "meta_norad_cat_id": 37960,
        "meta_element_set_no": 999,
        "meta_rev_at_epoch": 77463,
        "meta_bstar": 0.00064570376,
        "meta_mean_motion_dot": 1.428e-05,
        "meta_mean_motion_ddot": 0,
        "tle_line1": "1 37960U 93036BPK 25350.81629329  .00001428  00000+0  64570-3 0  9990",
        "tle_line2": "2 37960  74.0590 179.7478 0248539 197.3915 161.8600 14.07867991774632"
      },
      "geometry": {
        "type": "Point",
        "coordinates": [
          10.372840417666591,
          -48.42585924390828
        ]
      }
    },
    {
      "type": "Feature",
      "properties": {
        "norad_id": 37961,
        "name": "COSMOS 2251 DEB",
        "group": "cosmos-2251-debris",
        "lat": -30.45882289974086,
        "lon": -49.82144381517386,
        "alt_km": 676.8501641531575,
        "timestamp": "2025-12-21T11:31:43.257500+00:00",
        "meta_object_name": "COSMOS 2251 DEB",
        "meta_object_id": "1993-036BPL",
        "meta_epoch": "2025-12-13T03:18:27.462240",
        "meta_mean_motion": 14.57979799,
        "meta_eccentricity": 0.00406759,
        "meta_inclination": 74.0407,
        "meta_ra_of_asc_node": 136.3488,
        "meta_arg_of_pericenter": 216.8805,
        "meta_mean_anomaly": 142.9561,
        "meta_ephemeris_type": 0,
        "meta_classification_type": "U",
        "meta_norad_cat_id": 37961,
        "meta_element_set_no": 999,
        "meta_rev_at_epoch": 80071,
        "meta_bstar": 0.001729191,
        "meta_mean_motion_dot": 8.011e-05,
        "meta_mean_motion_ddot": 0,
        "tle_line1": "1 37961U 93036BPL 25347.13781785  .00008011  00000+0  17292-2 0  9990",
        "tle_line2": "2 37961  74.0407 136.3488 0040675 216.8805 142.9561 14.57979799800716"
      },
      "geometry": {
        "type": "Point",
        "coordinates": [
          -49.82144381517386,
          -30.45882289974086
        ]
      }
    }
  ]
}